[{"OBJECT_NAME":"STARLINK-34154","OBJECT_ID":"2025-101B","EPOCH":"2026-03-09T05:13:12.673056","MEAN_MOTION":15.2757391,"ECCENTRICITY":0.00014138,"INCLINATION":43.0018,"RA_OF_ASC_NODE":0.5839,"ARG_OF_PERICENTER":263.4199,"MEAN_ANOMALY":96.6491,"EPHEMERIS_TYPE":0,"CLASSIFICATION_TYPE":"U","NORAD_CAT_ID":63995,"ELEMENT_SET_NO":999,"REV_AT_EPOCH":4698,"BSTAR":0.0012535384,"MEAN_MOTION_DOT":0.00034387,"MEAN_MOTION_DDOT":0},{"OBJECT_NAME":"CZ-4 DEB","OBJECT_ID":"2006-046L","EPOCH":"2026-03-09T05:26:57.251328","MEAN_MOTION":15.20206122,"ECCENTRICITY":0.00567956,"INCLINATION":97.8211,"RA_OF_ASC_NODE":163.0679,"ARG_OF_PERICENTER":229.3561,"MEAN_ANOMALY":130.2727,"EPHEMERIS_TYPE":0,"CLASSIFICATION_TYPE":"U","NORAD_CAT_ID":35378,"ELEMENT_SET_NO":999,"REV_AT_EPOCH":2541,"BSTAR":0.0021311714,"MEAN_MOTION_DOT":0.00048409,"MEAN_MOTION_DDOT":0}]
